STARLINK-30206          
1 57295U 23096F   24090.37898111  .00001537  00000+0  12878-3 0  9995
2 57295  43.0015 117.7575 0000636 286.5811  73.4962 15.02544008 39824
STARLINK-30238          
1 57296U 23096G   24090.35900580  .00003308  00000+0  25977-3 0  9990
2 57296  43.0005 117.6403 0001048 266.7666  93.3057 15.02545208 39817
STARLINK-30234          
1 57297U 23096H   24090.08976492 -.00005124  00000+0 -36436-3 0  9998
2 57297  43.0010 119.0613 0000592 264.9232  95.1543 15.02550376 39772
STARLINK-30241          
1 57298U 23096J   24090.12961108  .00026161  00000+0  19418-2 0  9994
2 57298  43.0017 118.4781 0000400 314.0789  46.0020 15.02588595 39792
STARLINK-30199          
1 57299U 23096K   24090.08642639  .00003122  00000+0  24610-3 0  9998
2 57299  43.0014 119.0344 0001277 257.0002 103.0698 15.02527436 39881
STARLINK-30236          
1 57300U 23096L   24090.41552095  .00019328  00000+0  14430-2 0  9997
2 57300  43.0020 117.2058 0000662 257.4399 102.6369 15.02508211 39838
STARLINK-30201          
1 57301U 23096M   24090.41217028  .00014578  00000+0  10916-2 0  9999
2 57301  43.0018 117.1797 0001177 287.7429  72.3284 15.02549428 39820
STARLINK-30233          
1 57302U 23096N   24090.40883791  .00002900  00000+0  22973-3 0  9998
2 57302  43.0020 117.1247 0001050 274.0399  86.0323 15.02528900 39838
STARLINK-30232          
1 57303U 23096P   24090.33903376  .00001609  00000+0  13414-3 0  9998
2 57303  43.0013 117.4963 0001028 238.3168 121.7574 15.02533757 39821
STARLINK-30211          
1 57304U 23096Q   24089.80386782 -.00010706  00000+0 -77879-3 0  9990
2 57304  43.0007 120.3370 0000644 264.8736  95.2032 15.02529458 39937
STARLINK-30177          
1 57305U 23096R   24090.13293463  .00002441  00000+0  19564-3 0  9994
2 57305  43.0012 118.5186 0000573 255.4118 104.6660 15.02541546 39786
STARLINK-30200          
1 57306U 23096S   24090.46976596  .00005615  00000+0  43038-3 0  9995
2 57306  43.0004 116.7376 0001027 252.1427 107.9303 15.02538226 39849
STARLINK-30209          
1 57307U 23096T   24090.12630894 -.00001863  00000+0 -12317-3 0  9996
2 57307  43.0000 118.4579 0000308 272.5509  87.5298 15.02464812 39797
STARLINK-30194          
1 57308U 23096U   24090.12294638  .00008084  00000+0  61270-3 0  9991
2 57308  43.0009 118.4462 0001027 277.0974  82.9752 15.02542294 39787
STARLINK-30163          
1 57309U 23096V   24090.38553105  .00008252  00000+0  62533-3 0  9997
2 57309  43.0013 116.9774 0003176 280.4142  79.6342 15.02529693 39982
STARLINK-30184          
1 57310U 23096W   24090.46585620  .00005856  00000+0  44811-3 0  9991
2 57310  43.0018  90.8516 0000983 253.3124 106.7610 15.02544968 40147
STARLINK-30175          
1 57311U 23096X   24089.78389520  .00004905  00000+0  37788-3 0  9995
2 57311  43.0017 120.2023 0001303 269.8047  90.2646 15.02537756 39939
STARLINK-6290           
1 57328U 23099A   24089.84550605  .00001412  00000+0  11958-3 0  9998
2 57328  43.0018 146.4114 0001341 269.1000  90.9689 15.02542592 40247
STARLINK-6138           
1 57329U 23099B   24090.50029308 -.00002680  00000+0 -18338-3 0  9994
2 57329  43.0004 142.7221 0001116 267.9018  92.1696 15.02536234 40176
STARLINK-6212           
1 57330U 23099C   24090.50696364  .00000945  00000+0  85035-4 0  9997
2 57330  43.0035 142.7733 0001149 256.7547 103.3167 15.02523491 40178
STARLINK-6234           
1 57331U 23099D   24090.50584779  .00004733  00000+0  36511-3 0  9997
2 57331  43.0008 142.7617 0001286 263.7114  96.3582 15.02544246 39913
STARLINK-5831           
1 57332U 23099E   24090.43714094 -.00000320  00000+0 -86447-5 0  9990
2 57332  43.0018 143.1061 0001236 265.8374  94.2327 15.02546375 40167
STARLINK-5585           
1 57333U 23099F   24089.83773586 -.00001649  00000+0 -10705-3 0  9991
2 57333  43.0026 146.3496 0001376 277.4456  82.6230 15.02533516 39333
STARLINK-5589           
1 57334U 23099G   24090.49695996  .00001875  00000+0  15379-3 0  9995
2 57334  42.9992 142.6921 0001153 268.8587  91.2123 15.02539990 40069
STARLINK-6316           
1 57335U 23099H   24090.41938613  .00002453  00000+0  19662-3 0  9996
2 57335  43.0015 142.9749 0001270 266.9847  93.0850 15.02534904 40165
STARLINK-6320           
1 57336U 23099J   24089.85758157 -.00000767  00000+0 -41763-4 0  9992
2 57336  42.9989 145.6165 0000690  61.3283 298.7629 15.02534439 39341
STARLINK-6322           
1 57337U 23099K   24090.49363624  .00000868  00000+0  79293-4 0  9995
2 57337  43.0031 142.6684 0001145 265.1366  94.9346 15.02535720 40176
STARLINK-6374           
1 57338U 23099L   24089.62498070  .00000068  00000+0  20142-4 0  9994
2 57338  43.0013 147.3306 0001493 266.0049  94.0622 15.02542569 39304
STARLINK-6332           
1 57339U 23099M   24090.22994233  .00000118  00000+0  23769-4 0  9999
2 57339  43.0009 144.1305 0001170 262.1418  97.9291 15.02539029 40137
STARLINK-6321           
1 57340U 23099N   24090.41050261  .00003225  00000+0  25362-3 0  9998
2 57340  43.0000 142.9044 0000711 278.1367  81.9395 15.02545921 40165
STARLINK-6377           
1 57341U 23099P   24090.15013881  .00003928  00000+0  30564-3 0  9997
2 57341  43.0000 144.3917 0001202 268.6352  91.4353 15.02542748 40080
STARLINK-6375           
1 57342U 23099Q   24090.12794437  .00002521  00000+0  20158-3 0  9994
2 57342  43.0016 144.2259 0001354 274.7091  85.3597 15.02544046 40122
STARLINK-6379           
1 57343U 23099R   24089.88090199  .00002332  00000+0  18761-3 0  9997
2 57343  43.0025 145.8105 0001312 262.6294  97.4399 15.02542872 39346
STARLINK-6380           
1 57344U 23099S   24090.13795441  .00003347  00000+0  26283-3 0  9995
2 57344  42.9968 144.2931 0000200 133.9617 226.1242 15.02512473 40125
STARLINK-6373           
1 57345U 23099T   24090.47366084  .00000420  00000+0  46177-4 0  9994
2 57345  43.0031 142.5180 0001236 260.3495  99.7208 15.02531374 40177
STARLINK-6359           
1 57346U 23099U   24089.85537573 -.00003300  00000+0 -22935-3 0  9995
2 57346  42.9984 145.6214 0000468 333.7771  26.3047 15.02536411 39344
STARLINK-6378           
1 57347U 23099V   24089.86758952 -.00002844  00000+0 -19560-3 0  9995
2 57347  43.0016 145.7127 0001144 267.9780  92.0931 15.02531551 40082
STARLINK-6372           
1 57348U 23099W   24090.51460635  .00001879  00000+0  15415-3 0  9998
2 57348  43.0022 141.9659 0001182 276.0562  84.0146 15.02537882 40182
STARLINK-6376           
1 57349U 23099X   24090.51681820 -.00000725  00000+0 -38585-4 0  9995
2 57349  42.9999 141.9845 0001300 253.2407 106.8293 15.02541386 40188
STARLINK-6362           
1 57350U 23099Y   24090.38979001  .00008984  00000+0  67919-3 0  9998
2 57350  43.0001 130.5824 0001053 271.6168  88.4553 15.02538553 40300
STARLINK-6331           
1 57351U 23099Z   24089.84872357  .00002104  00000+0  17081-3 0  9997
2 57351  43.0008 145.5709 0001194 271.1993  88.8712 15.02534078 39344
STARLINK-6297           
1 57352U 23099AA  24090.11721507  .00002867  00000+0  22719-3 0  9990
2 57352  43.0010 131.9753 0001759 251.2400 108.8251 15.02541463 40265
STARLINK-6324           
1 57353U 23099AB  24090.44480118 -.00002567  00000+0 -17497-3 0  9993
2 57353  42.9998 142.2964 0001460 293.7624  66.3065 15.02540650 40174
STARLINK-6293           
1 57354U 23099AC  24090.17481678 -.00001366  00000+0 -86068-4 0  9993
2 57354  42.9986 131.5474 0001077 269.4993  90.5725 15.02538134 40279
STARLINK-6276           
1 57355U 23099AD  24089.58872618  .00001559  00000+0  13044-3 0  9990
2 57355  43.0017 134.8916 0001236 264.4940  95.5761 15.02542855 39445
STARLINK-6355           
1 57356U 23099AE  24089.84131612 -.00000358  00000+0 -11432-4 0  9990
2 57356  42.9987 133.3481 0000837 293.7508  66.3247 15.02545049 39489
STARLINK-5600           
1 57357U 23099AF  24090.38091047  .00001580  00000+0  13200-3 0  9999
2 57357  42.9999 130.5137 0001327 258.8584 101.2109 15.02527845 40191
STARLINK-6299           
1 57358U 23099AG  24090.50054616  .00006871  00000+0  52315-3 0  9993
2 57358  43.0011 129.6926 0001403 249.8788 110.1903 15.02540591 40324
STARLINK-6347           
1 57359U 23099AH  24090.45071741  .00002537  00000+0  20278-3 0  9994
2 57359  43.0000 130.1766 0001448 254.5292 105.5390 15.02537901 40312
STARLINK-6348           
1 57360U 23099AJ  24089.82910898  .00001084  00000+0  95285-4 0  9997
2 57360  43.0007 133.2538 0001163 272.7503  87.3207 15.02542031 39483
STARLINK-6340           
1 57361U 23099AK  24089.83798830 -.00001202  00000+0 -73908-4 0  9991
2 57361  43.0016 133.3209 0001201 265.4866  94.5839 15.02545616 39487
STARLINK-6343           
1 57362U 23099AL  24090.15816901  .00007446  00000+0  56560-3 0  9997
2 57362  43.0003 131.4240 0000751 277.5219  82.5538 15.02543074 40271
STARLINK-6356           
1 57363U 23099AM  24090.49721158 -.00000277  00000+0 -54048-5 0  9992
2 57363  43.0010 129.6666 0001222 264.0534  96.0169 15.02545211 40327
STARLINK-6338           
1 57364U 23099AN  24090.15705388 -.00001793  00000+0 -11765-3 0  9994
2 57364  43.0015 131.4140 0001248 275.4392  84.6308 15.02537712 40276
STARLINK-5007           
1 57365U 23099AP  24089.81467716  .00008099  00000+0  61380-3 0  9998
2 57365  43.0025 133.1366 0001913 274.6660  85.3964 15.02545403 39488
STARLINK-6174           
1 57366U 23099AQ  24090.15041739  .00015405  00000+0  11529-2 0  9999
2 57366  43.0008 131.3614 0001823 262.8583  97.2052 15.02536411 40222
STARLINK-6215           
1 57367U 23099AR  24090.47638232 -.00004158  00000+0 -29280-3 0  9994
2 57367  43.0023 116.4789 0001588 245.4445 114.6232 15.02553300 40476
STARLINK-6218           
1 57368U 23099AS  24090.47722777 -.00002408  00000+0 -16322-3 0  9992
2 57368  43.0007 129.5139 0001566 263.0691  96.9973 15.02537053 40323
STARLINK-6168           
1 57369U 23099AT  24090.41964178  .00001531  00000+0  12838-3 0  9992
2 57369  43.0016 129.9423 0001197 262.4958  97.5749 15.02535493 40260
